[{"OBJECT_NAME":"UNKNOWN","OBJECT_ID":"","EPOCH":"2026-04-25T03:38:58.064352","MEAN_MOTION":13.48682659,"ECCENTRICITY":0.0124672,"INCLINATION":64.6151,"RA_OF_ASC_NODE":265.3733,"ARG_OF_PERICENTER":234.0844,"MEAN_ANOMALY":124.8574,"EPHEMERIS_TYPE":0,"CLASSIFICATION_TYPE":"U","NORAD_CAT_ID":87280,"ELEMENT_SET_NO":999,"REV_AT_EPOCH":55184,"BSTAR":0.00058678,"MEAN_MOTION_DOT":3.0e-6,"MEAN_MOTION_DDOT":0},{"OBJECT_NAME":"UNKNOWN","OBJECT_ID":"","EPOCH":"2026-04-25T11:47:56.944320","MEAN_MOTION":14.20102123,"ECCENTRICITY":0.0428872,"INCLINATION":65.8946,"RA_OF_ASC_NODE":149.0676,"ARG_OF_PERICENTER":287.7581,"MEAN_ANOMALY":67.7148,"EPHEMERIS_TYPE":0,"CLASSIFICATION_TYPE":"U","NORAD_CAT_ID":87293,"ELEMENT_SET_NO":999,"REV_AT_EPOCH":63297,"BSTAR":0.0010103,"MEAN_MOTION_DOT":5.392e-5,"MEAN_MOTION_DDOT":0},{"OBJECT_NAME":"UNKNOWN","OBJECT_ID":"","EPOCH":"2026-04-17T23:00:25.923168","MEAN_MOTION":13.999068,"ECCENTRICITY":0.0023382,"INCLINATION":100.0992,"RA_OF_ASC_NODE":108.2587,"ARG_OF_PERICENTER":316.0272,"MEAN_ANOMALY":43.9028,"EPHEMERIS_TYPE":0,"CLASSIFICATION_TYPE":"U","NORAD_CAT_ID":87300,"ELEMENT_SET_NO":999,"REV_AT_EPOCH":63077,"BSTAR":0.00051703,"MEAN_MOTION_DOT":7.08e-6,"MEAN_MOTION_DDOT":0},{"OBJECT_NAME":"UNKNOWN","OBJECT_ID":"","EPOCH":"2026-04-22T13:12:33.224256","MEAN_MOTION":14.75975911,"ECCENTRICITY":0.0017469,"INCLINATION":74.0178,"RA_OF_ASC_NODE":64.753,"ARG_OF_PERICENTER":355.6492,"MEAN_ANOMALY":4.4527,"EPHEMERIS_TYPE":0,"CLASSIFICATION_TYPE":"U","NORAD_CAT_ID":87304,"ELEMENT_SET_NO":999,"REV_AT_EPOCH":66577,"BSTAR":0.00016297,"MEAN_MOTION_DOT":1.09e-5,"MEAN_MOTION_DDOT":0},{"OBJECT_NAME":"UNKNOWN","OBJECT_ID":"","EPOCH":"2026-04-25T10:35:06.720864","MEAN_MOTION":13.70574765,"ECCENTRICITY":0.0424972,"INCLINATION":66.5904,"RA_OF_ASC_NODE":125.1787,"ARG_OF_PERICENTER":329.1551,"MEAN_ANOMALY":28.5154,"EPHEMERIS_TYPE":0,"CLASSIFICATION_TYPE":"U","NORAD_CAT_ID":87320,"ELEMENT_SET_NO":999,"REV_AT_EPOCH":61206,"BSTAR":0.00099538,"MEAN_MOTION_DOT":1.601e-5,"MEAN_MOTION_DDOT":0},{"OBJECT_NAME":"UNKNOWN","OBJECT_ID":"","EPOCH":"2026-04-25T08:59:34.152576","MEAN_MOTION":14.12154943,"ECCENTRICITY":0.007205,"INCLINATION":90.0063,"RA_OF_ASC_NODE":271.7362,"ARG_OF_PERICENTER":177.0833,"MEAN_ANOMALY":183.0788,"EPHEMERIS_TYPE":0,"CLASSIFICATION_TYPE":"U","NORAD_CAT_ID":87334,"ELEMENT_SET_NO":999,"REV_AT_EPOCH":40547,"BSTAR":0.01133,"MEAN_MOTION_DOT":0.00021364,"MEAN_MOTION_DDOT":0},{"OBJECT_NAME":"UNKNOWN","OBJECT_ID":"","EPOCH":"2026-04-25T03:33:30.613536","MEAN_MOTION":14.12513182,"ECCENTRICITY":0.0090927,"INCLINATION":89.9929,"RA_OF_ASC_NODE":267.8567,"ARG_OF_PERICENTER":159.1289,"MEAN_ANOMALY":201.3648,"EPHEMERIS_TYPE":0,"CLASSIFICATION_TYPE":"U","NORAD_CAT_ID":87335,"ELEMENT_SET_NO":999,"REV_AT_EPOCH":40577,"BSTAR":0.011212,"MEAN_MOTION_DOT":0.00021597,"MEAN_MOTION_DDOT":0},{"OBJECT_NAME":"UNKNOWN","OBJECT_ID":"","EPOCH":"2026-04-25T12:50:57.131808","MEAN_MOTION":13.96964024,"ECCENTRICITY":0.0057619,"INCLINATION":82.7499,"RA_OF_ASC_NODE":314.5237,"ARG_OF_PERICENTER":308.0798,"MEAN_ANOMALY":51.518,"EPHEMERIS_TYPE":0,"CLASSIFICATION_TYPE":"U","NORAD_CAT_ID":87405,"ELEMENT_SET_NO":999,"REV_AT_EPOCH":62983,"BSTAR":0.00056307,"MEAN_MOTION_DOT":8.1e-6,"MEAN_MOTION_DDOT":0},{"OBJECT_NAME":"UNKNOWN","OBJECT_ID":"","EPOCH":"2026-04-25T14:07:18.950592","MEAN_MOTION":14.31033276,"ECCENTRICITY":0.0065354,"INCLINATION":65.7839,"RA_OF_ASC_NODE":331.2053,"ARG_OF_PERICENTER":232.9479,"MEAN_ANOMALY":157.041,"EPHEMERIS_TYPE":0,"CLASSIFICATION_TYPE":"U","NORAD_CAT_ID":87426,"ELEMENT_SET_NO":999,"REV_AT_EPOCH":64173,"BSTAR":0.0011395,"MEAN_MOTION_DOT":2.984e-5,"MEAN_MOTION_DDOT":0},{"OBJECT_NAME":"UNKNOWN","OBJECT_ID":"","EPOCH":"2026-04-25T11:00:06.674976","MEAN_MOTION":13.91009624,"ECCENTRICITY":0.0061439,"INCLINATION":100.4467,"RA_OF_ASC_NODE":343.5038,"ARG_OF_PERICENTER":217.4195,"MEAN_ANOMALY":142.2674,"EPHEMERIS_TYPE":0,"CLASSIFICATION_TYPE":"U","NORAD_CAT_ID":87448,"ELEMENT_SET_NO":999,"REV_AT_EPOCH":62782,"BSTAR":0.00085595,"MEAN_MOTION_DOT":1.036e-5,"MEAN_MOTION_DDOT":0},{"OBJECT_NAME":"UNKNOWN","OBJECT_ID":"","EPOCH":"2026-04-17T09:58:23.113056","MEAN_MOTION":14.15650208,"ECCENTRICITY":0.0510996,"INCLINATION":65.765,"RA_OF_ASC_NODE":116.647,"ARG_OF_PERICENTER":300.8719,"MEAN_ANOMALY":54.3047,"EPHEMERIS_TYPE":0,"CLASSIFICATION_TYPE":"U","NORAD_CAT_ID":87456,"ELEMENT_SET_NO":999,"REV_AT_EPOCH":62927,"BSTAR":0.0006764,"MEAN_MOTION_DOT":4.76e-5,"MEAN_MOTION_DDOT":0},{"OBJECT_NAME":"UNKNOWN","OBJECT_ID":"","EPOCH":"2026-04-22T17:51:25.196832","MEAN_MOTION":13.6231567,"ECCENTRICITY":0.0671902,"INCLINATION":65.816,"RA_OF_ASC_NODE":273.291,"ARG_OF_PERICENTER":244.0784,"MEAN_ANOMALY":139.7924,"EPHEMERIS_TYPE":0,"CLASSIFICATION_TYPE":"U","NORAD_CAT_ID":87517,"ELEMENT_SET_NO":999,"REV_AT_EPOCH":61075,"BSTAR":0.00066682,"MEAN_MOTION_DOT":2.371e-5,"MEAN_MOTION_DDOT":0},{"OBJECT_NAME":"UNKNOWN","OBJECT_ID":"","EPOCH":"2026-04-20T01:34:36.458400","MEAN_MOTION":13.35632335,"ECCENTRICITY":0.0059501,"INCLINATION":99.6905,"RA_OF_ASC_NODE":322.484,"ARG_OF_PERICENTER":312.4864,"MEAN_ANOMALY":200.1716,"EPHEMERIS_TYPE":0,"CLASSIFICATION_TYPE":"U","NORAD_CAT_ID":87541,"ELEMENT_SET_NO":999,"REV_AT_EPOCH":59916,"BSTAR":0.00033742,"MEAN_MOTION_DOT":1.31e-6,"MEAN_MOTION_DDOT":0},{"OBJECT_NAME":"UNKNOWN","OBJECT_ID":"","EPOCH":"2026-04-25T03:42:47.395872","MEAN_MOTION":13.54296179,"ECCENTRICITY":0.0686355,"INCLINATION":65.6705,"RA_OF_ASC_NODE":32.7942,"ARG_OF_PERICENTER":168.1375,"MEAN_ANOMALY":193.682,"EPHEMERIS_TYPE":0,"CLASSIFICATION_TYPE":"U","NORAD_CAT_ID":87553,"ELEMENT_SET_NO":999,"REV_AT_EPOCH":60931,"BSTAR":0.00034592,"MEAN_MOTION_DOT":1.012e-5,"MEAN_MOTION_DDOT":0},{"OBJECT_NAME":"UNKNOWN","OBJECT_ID":"","EPOCH":"2026-04-24T14:38:19.467456","MEAN_MOTION":13.28968718,"ECCENTRICITY":0.0072495,"INCLINATION":101.7963,"RA_OF_ASC_NODE":352.8895,"ARG_OF_PERICENTER":74.7615,"MEAN_ANOMALY":286.1501,"EPHEMERIS_TYPE":0,"CLASSIFICATION_TYPE":"U","NORAD_CAT_ID":87557,"ELEMENT_SET_NO":999,"REV_AT_EPOCH":58267,"BSTAR":0.0086238,"MEAN_MOTION_DOT":3.972e-5,"MEAN_MOTION_DDOT":0},{"OBJECT_NAME":"UNKNOWN","OBJECT_ID":"","EPOCH":"2026-04-24T09:08:22.180992","MEAN_MOTION":12.3216015,"ECCENTRICITY":0.0174241,"INCLINATION":101.9867,"RA_OF_ASC_NODE":173.1386,"ARG_OF_PERICENTER":50.6792,"MEAN_ANOMALY":11.8863,"EPHEMERIS_TYPE":0,"CLASSIFICATION_TYPE":"U","NORAD_CAT_ID":87561,"ELEMENT_SET_NO":999,"REV_AT_EPOCH":55877,"BSTAR":-0.00074554,"MEAN_MOTION_DOT":-1.38e-6,"MEAN_MOTION_DDOT":0},{"OBJECT_NAME":"UNKNOWN","OBJECT_ID":"","EPOCH":"2026-04-21T05:37:10.897824","MEAN_MOTION":14.06360298,"ECCENTRICITY":0.0172025,"INCLINATION":99.9503,"RA_OF_ASC_NODE":120.6007,"ARG_OF_PERICENTER":179.7835,"MEAN_ANOMALY":180.3434,"EPHEMERIS_TYPE":0,"CLASSIFICATION_TYPE":"U","NORAD_CAT_ID":87565,"ELEMENT_SET_NO":999,"REV_AT_EPOCH":63463,"BSTAR":0.0005149,"MEAN_MOTION_DOT":9.19e-6,"MEAN_MOTION_DDOT":0},{"OBJECT_NAME":"UNKNOWN","OBJECT_ID":"","EPOCH":"2026-04-25T11:02:06.960192","MEAN_MOTION":12.68546206,"ECCENTRICITY":0.0055487,"INCLINATION":101.997,"RA_OF_ASC_NODE":302.9919,"ARG_OF_PERICENTER":351.3394,"MEAN_ANOMALY":36.7515,"EPHEMERIS_TYPE":0,"CLASSIFICATION_TYPE":"U","NORAD_CAT_ID":87569,"ELEMENT_SET_NO":999,"REV_AT_EPOCH":57542,"BSTAR":0.00011317,"MEAN_MOTION_DOT":-2.6e-7,"MEAN_MOTION_DDOT":0},{"OBJECT_NAME":"UNKNOWN","OBJECT_ID":"","EPOCH":"2026-03-28T01:32:30.671232","MEAN_MOTION":14.10476543,"ECCENTRICITY":0.0025998,"INCLINATION":98.7733,"RA_OF_ASC_NODE":126.733,"ARG_OF_PERICENTER":348.383,"MEAN_ANOMALY":41.2894,"EPHEMERIS_TYPE":0,"CLASSIFICATION_TYPE":"U","NORAD_CAT_ID":87590,"ELEMENT_SET_NO":999,"REV_AT_EPOCH":16909,"BSTAR":0.00030064,"MEAN_MOTION_DOT":4.93e-6,"MEAN_MOTION_DDOT":0},{"OBJECT_NAME":"UNKNOWN","OBJECT_ID":"","EPOCH":"2026-04-11T21:22:13.158048","MEAN_MOTION":12.47058495,"ECCENTRICITY":0.0629386,"INCLINATION":66.0337,"RA_OF_ASC_NODE":272.2779,"ARG_OF_PERICENTER":87.1964,"MEAN_ANOMALY":55.1063,"EPHEMERIS_TYPE":0,"CLASSIFICATION_TYPE":"U","NORAD_CAT_ID":87616,"ELEMENT_SET_NO":999,"REV_AT_EPOCH":55121,"BSTAR":0.001285,"MEAN_MOTION_DOT":3.29e-6,"MEAN_MOTION_DDOT":0},{"OBJECT_NAME":"UNKNOWN","OBJECT_ID":"","EPOCH":"2026-04-25T07:38:13.263648","MEAN_MOTION":14.71768898,"ECCENTRICITY":0.0094572,"INCLINATION":98.6946,"RA_OF_ASC_NODE":66.5548,"ARG_OF_PERICENTER":189.4155,"MEAN_ANOMALY":170.5281,"EPHEMERIS_TYPE":0,"CLASSIFICATION_TYPE":"U","NORAD_CAT_ID":87624,"ELEMENT_SET_NO":999,"REV_AT_EPOCH":59991,"BSTAR":0.00052681,"MEAN_MOTION_DOT":3.466e-5,"MEAN_MOTION_DDOT":0},{"OBJECT_NAME":"UNKNOWN","OBJECT_ID":"","EPOCH":"2026-04-21T20:22:21.783072","MEAN_MOTION":14.64965598,"ECCENTRICITY":0.0028891,"INCLINATION":100.265,"RA_OF_ASC_NODE":323.7894,"ARG_OF_PERICENTER":259.0068,"MEAN_ANOMALY":100.7877,"EPHEMERIS_TYPE":0,"CLASSIFICATION_TYPE":"U","NORAD_CAT_ID":87650,"ELEMENT_SET_NO":999,"REV_AT_EPOCH":9879,"BSTAR":0.0013744,"MEAN_MOTION_DOT":7.341e-5,"MEAN_MOTION_DDOT":0},{"OBJECT_NAME":"UNKNOWN","OBJECT_ID":"","EPOCH":"2026-04-25T13:18:28.717920","MEAN_MOTION":14.28485315,"ECCENTRICITY":0.0054423,"INCLINATION":70.857,"RA_OF_ASC_NODE":77.4078,"ARG_OF_PERICENTER":68.1147,"MEAN_ANOMALY":292.5756,"EPHEMERIS_TYPE":0,"CLASSIFICATION_TYPE":"U","NORAD_CAT_ID":87672,"ELEMENT_SET_NO":999,"REV_AT_EPOCH":64356,"BSTAR":0.00072135,"MEAN_MOTION_DOT":1.787e-5,"MEAN_MOTION_DDOT":0},{"OBJECT_NAME":"UNKNOWN","OBJECT_ID":"","EPOCH":"2026-04-19T10:09:24.297696","MEAN_MOTION":13.71404627,"ECCENTRICITY":0.0147222,"INCLINATION":66.7357,"RA_OF_ASC_NODE":156.1713,"ARG_OF_PERICENTER":74.533,"MEAN_ANOMALY":287.1943,"EPHEMERIS_TYPE":0,"CLASSIFICATION_TYPE":"U","NORAD_CAT_ID":87681,"ELEMENT_SET_NO":999,"REV_AT_EPOCH":61934,"BSTAR":0.00064288,"MEAN_MOTION_DOT":5.52e-6,"MEAN_MOTION_DDOT":0}]
